[{"OBJECT_NAME":"STARLINK-30103","OBJECT_ID":"2023-056E","EPOCH":"2026-03-09T22:00:01.999584","MEAN_MOTION":15.26736868,"ECCENTRICITY":0.00023268,"INCLINATION":42.9993,"RA_OF_ASC_NODE":207.4054,"ARG_OF_PERICENTER":264.6,"MEAN_ANOMALY":232.0817,"EPHEMERIS_TYPE":0,"CLASSIFICATION_TYPE":"U","NORAD_CAT_ID":56290,"ELEMENT_SET_NO":999,"REV_AT_EPOCH":572,"BSTAR":0.0017273975,"MEAN_MOTION_DOT":0.00046364,"MEAN_MOTION_DDOT":0},{"OBJECT_NAME":"OBJECT P","OBJECT_ID":"2025-155P","EPOCH":"2026-03-09T22:15:55.475424","MEAN_MOTION":15.2544775,"ECCENTRICITY":0.00080527,"INCLINATION":97.4496,"RA_OF_ASC_NODE":37.0295,"ARG_OF_PERICENTER":153.0691,"MEAN_ANOMALY":207.0966,"EPHEMERIS_TYPE":0,"CLASSIFICATION_TYPE":"U","NORAD_CAT_ID":64889,"ELEMENT_SET_NO":999,"REV_AT_EPOCH":6557,"BSTAR":0.00031377111,"MEAN_MOTION_DOT":7.871e-5,"MEAN_MOTION_DDOT":0}]
